{
  "norad_id": 68715,
  "name": "STARLINK-37322",
  "history": [
    {
      "epoch": "2026-04-23T15:27:25.304832Z",
      "apogee_km": 315.16958789058936,
      "perigee_km": 314.23687367602815,
      "latitude_deg": -3.060862850282132e-05,
      "longitude_deg": 111.97802120923295,
      "height_km": 315.19621717700204,
      "semi_major_axis_km": 6692.8402307833085,
      "eccentricity": 6.968e-05,
      "inclination_deg": 53.1596,
      "raan_deg": 195.5218,
      "arg_perigee_deg": 23.453,
      "mean_anomaly_deg": 336.6526,
      "mean_motion_rev_day": 15.85576043
    }
  ]
}