STARLINK-37322          
1 68715U 26081S   26113.64404288 -.00646383  00000+0 -28171-2 0  9995
2 68715  53.1596 195.5218 0000696  23.4530 336.6526 15.85576043  1485
